[{"OBJECT_NAME":"SPIP","OBJECT_ID":"2023-174AU","EPOCH":"2026-03-09T22:52:46.383168","MEAN_MOTION":15.26695413,"ECCENTRICITY":0.00100427,"INCLINATION":97.3901,"RA_OF_ASC_NODE":146.4534,"ARG_OF_PERICENTER":168.1112,"MEAN_ANOMALY":192.0366,"EPHEMERIS_TYPE":0,"CLASSIFICATION_TYPE":"U","NORAD_CAT_ID":58298,"ELEMENT_SET_NO":999,"REV_AT_EPOCH":12963,"BSTAR":0.00025731582,"MEAN_MOTION_DOT":6.692e-5,"MEAN_MOTION_DDOT":0},{"OBJECT_NAME":"STARLINK-32500","OBJECT_ID":"2024-207Z","EPOCH":"2026-03-09T13:57:43.125696","MEAN_MOTION":15.27589215,"ECCENTRICITY":7.44e-5,"INCLINATION":42.9989,"RA_OF_ASC_NODE":285.9761,"ARG_OF_PERICENTER":28.1004,"MEAN_ANOMALY":331.9887,"EPHEMERIS_TYPE":0,"CLASSIFICATION_TYPE":"U","NORAD_CAT_ID":61935,"ELEMENT_SET_NO":999,"REV_AT_EPOCH":7466,"BSTAR":0.0009045,"MEAN_MOTION_DOT":0.00024718,"MEAN_MOTION_DDOT":0}]
